PROBA-1                 
1 26958U 01049B   26167.14101624  .00001698  00000+0  11250-3 0  9990
2 26958  97.9597 175.6367 0056393 125.2911 235.3609 15.07492331343463
CUTE-1 (CO-55)          
1 27844U 03031E   26166.98345551  .00000235  00000+0  12048-3 0  9990
2 27844  98.6736 175.5574 0009449 181.4906 178.6246 14.24335068191501
CUBESAT XI-IV (CO-57)   
1 27848U 03031J   26166.97130938  .00000200  00000+0  10702-3 0  9991
2 27848  98.6765 175.2591 0008944 200.7616 159.3200 14.23620242191208
APRIZESAT 4             
1 35684U 09041D   26167.17813913  .00000579  00000+0  75794-4 0  9991
2 35684  98.1413 242.4785 0042466 326.3943  33.4578 14.83878253911211
APRIZESAT 3             
1 35686U 09041F   26166.96209743  .00001496  00000+0  13326-3 0  9990
2 35686  98.2058 320.1272 0062774  71.7012 289.1024 14.96237754916193
PROBA-2                 
1 36037U 09059B   26167.07128874  .00000148  00000+0  45042-4 0  9992
2 36037  98.2449 350.4395 0011984 285.9682  74.0194 14.54862034881367
APRIZESAT 5             
1 37792U 11044E   26167.06141598  .00000977  00000+0  13050-3 0  9998
2 37792  98.2453 100.0699 0052435   7.9542 352.2489 14.81073952798627
APRIZESAT 6             
1 37793U 11044F   26166.99546477  .00000651  00000+0  98906-4 0  9998
2 37793  98.2365  77.4707 0044496  89.7335 333.6406 14.76914317796974
PROBA-V                 
1 39159U 13021A   26167.20545367  .00000046  00000+0  38241-4 0  9999
2 39159  98.3583 145.8605 0005099 125.7196 234.4459 14.23596789680973
APRIZESAT 7             
1 39416U 13066A   26167.14767777  .00001072  00000+0  11149-3 0  9995
2 39416  97.7709 120.3825 0034916 212.7929 147.1122 14.91561995681070
APRIZESAT 8             
1 39425U 13066K   26167.13253037  .00000824  00000+0  95187-4 0  9992
2 39425  97.8220 114.6150 0044468 290.1674  69.4762 14.87651062679518
BUGSAT-1 (TITA)         
1 40014U 14033E   26167.17793297  .00005455  00000+0  28863-3 0  9995
2 40014  98.0436 259.6670 0027964 181.6365 178.4779 15.15578839655689
SAUDISAT 4              
1 40016U 14033G   26166.96915447  .00000569  00000+0  81553-4 0  9993
2 40016  97.7580 313.1459 0046185  77.8398 282.7982 14.79543384645899
APRIZESAT 9             
1 40018U 14033J   26166.91799100  .00000595  00000+0  94848-4 0  9996
2 40018  97.9059 300.1476 0065591 203.2811 156.5424 14.74212989643375
APRIZESAT 10            
1 40019U 14033K   26166.90215808  .00000348  00000+0  62734-4 0  9999
2 40019  97.9648 293.8902 0077392 278.0254  81.2176 14.70881416642061
TECHDEMOSAT-1 (TDS-1)   
1 40076U 14037H   26166.96831052  .00006534  00000+0  37148-3 0  9990
2 40076  98.3810 159.0605 0004447 271.0904  88.9814 15.13278972648041
TECHNOSAT               
1 42829U 17042E   26167.18544573  .00003492  00000+0  24962-3 0  9991
2 42829  97.4281 324.8808 0018879  97.3858 262.9515 15.04955411486557
FLYING LAPTOP           
1 42831U 17042G   26167.18565837  .00002110  00000+0  16857-3 0  9990
2 42831  97.4679 322.7561 0019528 124.9089 235.3974 15.01138064486309
HAWK-A                  
1 43765U 18099H   26167.10111525  .00005398  00000+0  21837-3 0  9998
2 43765  97.3913 219.3512 0033127 289.9439  69.8231 15.24632636412938
HAWK-B                  
1 43794U 18099AN  26167.05565029  .00004718  00000+0  20226-3 0  9992
2 43794  97.3963 218.7238 0030571 309.1246  50.7273 15.22815777412868
HAWK-C                  
1 43799U 18099AT  26167.14559793  .00006065  00000+0  21937-3 0  9995
2 43799  97.3889 220.3022 0038784 289.6441  70.0615 15.28091165413750
SALSAT                  
1 46495U 20068K   26166.96813813  .00006820  00000+0  23912-3 0  9999
2 46495  97.8844 169.9584 0008114 313.3675  46.6887 15.29785415315177
HAWK-2C                 
1 47502U 21006CT  26167.10901464  .00005486  00000+0  16560-3 0  9997
2 47502  97.2274 211.4403 0006576 189.5044 170.6077 15.34652777299332
HAWK-2A                 
1 47505U 21006CW  26167.11151760  .00005420  00000+0  16358-3 0  9990
2 47505  97.2317 212.1200 0005989 192.6997 167.4096 15.34667448299331
HAWK-2B                 
1 47508U 21006CZ  26167.10711425  .00005942  00000+0  17861-3 0  9991
2 47508  97.2187 210.4491 0006577 190.9114 169.1988 15.34754544299331
HAWK-3B                 
1 48931U 21059BE  26166.79410914  .00037015  00000+0  31563-3 0  9994
2 48931  97.6654   3.3703 0003294 337.9580  22.1539 15.69456462277638
HAWK-3C                 
1 48948U 21059BX  26166.53875129  .00038758  00000+0  33058-3 0  9993
2 48948  97.6771   8.7743 0003649 341.3056  18.8070 15.69439647277593
HAWK-3A                 
1 48957U 21059CG  26166.53863403  .00039884  00000+0  33997-3 0  9998
2 48957  97.6715   5.9805 0003770 342.6233  17.4898 15.69448522277590
HAWK-5C                 
1 52754U 22057Y   26166.94759587  .00015482  00000+0  26481-3 0  9997
2 52754  97.6593 326.5340 0005098  86.7842 273.3993 15.51355304226158
HAWK-5B                 
1 52756U 22057AA  26166.94744547  .00015600  00000+0  26676-3 0  9997
2 52756  97.6603 324.8830 0005746  79.6792 280.5107 15.51356518226157
HAWK-5A                 
1 52757U 22057AB  26166.94723544  .00015733  00000+0  26904-3 0  9993
2 52757  97.6601 325.7143 0005662  82.7122 277.4773 15.51354575226157
